NORAD_CAT_ID,OBJECT_NAME,OBJECT_TYPE,EPOCH,MEAN_MOTION,ECCENTRICITY,INCLINATION,RA_OF_ASC_NODE,ARG_OF_PERICENTER,MEAN_ANOMALY,BSTAR,MEAN_MOTION_DOT,MEAN_MOTION_DDOT,TLE_LINE0,TLE_LINE1,TLE_LINE2,SEMIMAJOR_AXIS,PERIOD,APOGEE,PERIGEE,DECAYED
53716.0,STARLINK-4699,PAYLOAD,2024-05-15 14:19:22,15.0885941,0.0002937,53.2177,350.5361,87.5444,272.5884,0.00018232,2.616e-05,0.0,0 STARLINK-4699,1 53716U 22107S   24136.59678961  .00002616  00000-0  18232-3 0  9995,2 53716  53.2177 350.5361 0002937  87.5444 272.5884 15.08859410 94308,6917.821,95.436,541.718,537.654,0.0
53716.0,STARLINK-4699,PAYLOAD,2024-05-15 20:40:55,15.08841163,0.0001468,53.2181,349.3475,94.748,265.368,-0.0002184,-3.762e-05,0.0,0 STARLINK-4699,1 53716U 22107S   24136.86174934 -.00003762  00000-0 -21840-3 0  9990,2 53716  53.2181 349.3475 0001468  94.7480 265.3680 15.08841163 93896,6917.877,95.437,540.757,538.726,0.0
53716.0,STARLINK-4699,PAYLOAD,2024-05-16 20:31:42,15.08848756,0.0001474,53.2183,344.8868,106.4059,253.7095,0.00068769,0.00010676,0.0,0 STARLINK-4699,1 53716U 22107S   24137.85535106  .00010676  00000-0  68769-3 0  9993,2 53716  53.2183 344.8868 0001474 106.4059 253.7095 15.08848756 94497,6917.854,95.437,540.738,538.699,0.0
53716.0,STARLINK-4699,PAYLOAD,2024-05-16 23:42:28,15.08850254,0.0001442,53.2185,344.2924,105.7512,254.3639,0.00069355,0.0001077,0.0,0 STARLINK-4699,1 53716U 22107S   24137.98783068  .00010770  00000-0  69355-3 0  9996,2 53716  53.2185 344.2924 0001442 105.7512 254.3639 15.08850254 94067,6917.849,95.437,540.712,538.716,0.0
53716.0,STARLINK-4699,PAYLOAD,2024-05-17 20:22:29,15.08835681,0.0002078,53.217,340.4294,97.7993,262.3235,0.00046402,7.104e-05,0.0,0 STARLINK-4699,1 53716U 22107S   24138.84895813  .00007104  00000-0  46402-3 0  9999,2 53716  53.2170 340.4294 0002078  97.7993 262.3235 15.08835681 94190,6917.894,95.438,541.196,538.321,0.0
53716.0,STARLINK-4699,PAYLOAD,2024-05-18 05:54:48,15.08849699,0.00018,53.2185,338.6437,91.8877,268.2321,0.00054781,8.443e-05,0.0,0 STARLINK-4699,1 53716U 22107S   24139.24639539  .00008443  00000-0  54781-3 0  9991,2 53716  53.2185 338.6437 0001800  91.8877 268.2321 15.08849699 94704,6917.851,95.437,540.961,538.471,0.0
53716.0,STARLINK-4699,PAYLOAD,2024-05-18 20:13:16,15.08860336,0.0001473,53.2171,335.9689,102.3088,257.8069,0.00081689,0.00012744,0.0,0 STARLINK-4699,1 53716U 22107S   24139.84255200  .00012744  00000-0  81689-3 0  9992,2 53716  53.2171 335.9689 0001473 102.3088 257.8069 15.08860336 94799,6917.818,95.436,540.702,538.664,0.0
53716.0,STARLINK-4699,PAYLOAD,2024-05-19 13:42:30,15.08860355,8.13e-05,53.2169,332.6944,69.8287,290.2792,0.00033642,5.073e-05,0.0,0 STARLINK-4699,1 53716U 22107S   24140.57118166  .00005073  00000-0  33642-3 0  9996,2 53716  53.2169 332.6944 0000813  69.8287 290.2792 15.08860355 94907,6917.818,95.436,540.246,539.121,0.0
53716.0,STARLINK-4699,PAYLOAD,2024-05-19 20:04:02,15.08846927,8.72e-05,53.2162,331.5064,52.654,307.4532,-3.4772e-05,-8.41e-06,0.0,0 STARLINK-4699,1 53716U 22107S   24140.83614380 -.00000841  00000-0 -34772-4 0  9990,2 53716  53.2162 331.5064 0000872  52.6540 307.4532 15.08846927 94494,6917.859,95.437,540.327,539.121,0.0
53716.0,STARLINK-4699,PAYLOAD,2024-05-19 23:14:49,15.08848526,9.9e-05,53.2167,330.9115,67.3536,292.7561,0.000162,2.292e-05,0.0,0 STARLINK-4699,1 53716U 22107S   24140.96862271  .00002292  00000-0  16200-3 0  9993,2 53716  53.2167 330.9115 0000990  67.3536 292.7561 15.08848526 94965,6917.854,95.437,540.404,539.034,0.0
53716.0,STARLINK-4699,PAYLOAD,2024-05-20 19:54:50,15.08829931,0.0001003,53.216,327.042,73.8305,286.2798,-0.00013295,-2.402e-05,0.0,0 STARLINK-4699,1 53716U 22107S   24141.82975463 -.00002402  00000-0 -13295-3 0  9993,2 53716  53.2160 327.0420 0001003  73.8305 286.2798 15.08829931 94640,6917.911,95.438,540.47,539.082,0.0
53716.0,STARLINK-4699,PAYLOAD,2024-05-21 11:48:42,15.08826832,0.0001108,53.2165,324.0738,68.2973,291.8137,0.00014634,2.041e-05,0.0,0 STARLINK-4699,1 53716U 22107S   24142.49216398  .00002041  00000-0  14634-3 0  9997,2 53716  53.2165 324.0738 0001108  68.2973 291.8137 15.08826832 95196,6917.921,95.438,540.552,539.019,0.0
53716.0,STARLINK-4699,PAYLOAD,2024-05-21 19:45:38,15.08834033,0.0001168,53.2169,322.5865,77.7913,282.321,0.00035385,5.347e-05,0.0,0 STARLINK-4699,1 53716U 22107S   24142.82336466  .00005347  00000-0  35385-3 0  9991,2 53716  53.2169 322.5865 0001168  77.7913 282.3210 15.08834033 95244,6917.899,95.438,540.572,538.956,0.0
53716.0,STARLINK-4699,PAYLOAD,2024-05-22 00:31:47,15.08847063,0.000102,53.2161,321.6933,85.9599,274.1509,0.00066904,0.00010378,0.0,0 STARLINK-4699,1 53716U 22107S   24143.02208152  .00010378  00000-0  66904-3 0  9995,2 53716  53.2161 321.6933 0001020  85.9599 274.1509 15.08847063 94820,6917.859,95.437,540.429,539.018,0.0
53716.0,STARLINK-4699,PAYLOAD,2024-05-22 13:14:53,15.08834927,0.0001207,53.2166,319.3173,42.9245,317.1841,0.00021048,3.063e-05,0.0,0 STARLINK-4699,1 53716U 22107S   24143.55200846  .00003063  00000-0  21048-3 0  9998,2 53716  53.2166 319.3173 0001207  42.9245 317.1841 15.08834927 94904,6917.896,95.438,540.596,538.926,0.0
53716.0,STARLINK-4699,PAYLOAD,2024-05-22 21:11:48,15.08848061,0.0001084,53.2169,317.8272,94.3748,265.7368,0.00048564,7.451e-05,0.0,0 STARLINK-4699,1 53716U 22107S   24143.88320402  .00007451  00000-0  48564-3 0  9992,2 53716  53.2169 317.8272 0001084  94.3748 265.7368 15.08848061 94953,6917.856,95.437,540.471,538.971,0.0
53716.0,STARLINK-4699,PAYLOAD,2024-05-23 11:30:17,15.08836321,0.0001175,53.2167,315.1514,87.698,272.4147,0.0001694,2.409e-05,0.0,0 STARLINK-4699,1 53716U 22107S   24144.47936615  .00002409  00000-0  16940-3 0  9998,2 53716  53.2167 315.1514 0001175  87.6980 272.4147 15.08836321 95042,6917.892,95.438,540.569,538.944,0.0
53716.0,STARLINK-4699,PAYLOAD,2024-05-23 14:41:03,15.08837448,0.0001237,53.217,314.5566,95.9937,264.1196,0.00055571,8.567e-05,0.0,0 STARLINK-4699,1 53716U 22107S   24144.61184677  .00008567  00000-0  55571-3 0  9991,2 53716  53.2170 314.5566 0001237  95.9937 264.1196 15.08837448 95514,6917.888,95.438,540.609,538.897,0.0
53716.0,STARLINK-4699,PAYLOAD,2024-05-23 21:02:36,15.08854173,0.0001226,53.2169,313.3671,87.2867,272.8265,0.00185,0.00029289,0.0,0 STARLINK-4699,1 53716U 22107S   24144.87680560  .00029289  00000-0  18500-2 0  9995,2 53716  53.2169 313.3671 0001226  87.2867 272.8265 15.08854173 95551,6917.837,95.437,540.55,538.854,0.0
53716.0,STARLINK-4699,PAYLOAD,2024-05-23 22:37:59,15.08855109,0.0001245,53.217,313.0695,87.8374,272.2761,0.001803,0.00028535,0.0,0 STARLINK-4699,1 53716U 22107S   24144.94304512  .00028535  00000-0  18030-2 0  9994,2 53716  53.2170 313.0695 0001245  87.8374 272.2761 15.08855109 95113,6917.834,95.437,540.56,538.838,0.0
53716.0,STARLINK-4699,PAYLOAD,2024-05-24 11:21:04,15.08854695,0.0001287,53.2173,310.6907,94.0667,266.0472,0.0011438,0.0001797,0.0,0 STARLINK-4699,1 53716U 22107S   24145.47296534  .00017970  00000-0  11438-2 0  9993,2 53716  53.2173 310.6907 0001287  94.0667 266.0472 15.08854695 95193,6917.835,95.437,540.591,538.81,0.0
53716.0,STARLINK-4699,PAYLOAD,2024-05-24 14:31:50,15.08852904,0.0001138,53.2174,310.0962,95.4852,264.627,0.0010592,0.00016615,0.0,0 STARLINK-4699,1 53716U 22107S   24145.60544503  .00016615  00000-0  10592-2 0  9995,2 53716  53.2174 310.0962 0001138  95.4852 264.6270 15.08852904 95668,6917.841,95.437,540.493,538.919,0.0
53716.0,STARLINK-4699,PAYLOAD,2024-05-24 17:42:36,15.08852922,0.0001129,53.2174,309.5015,84.1924,275.9197,0.0012572,0.00019784,0.0,0 STARLINK-4699,1 53716U 22107S   24145.73792467  .00019784  00000-0  12572-2 0  9993,2 53716  53.2174 309.5015 0001129  84.1924 275.9197 15.08852922 95680,6917.841,95.437,540.487,538.925,0.0
53716.0,STARLINK-4699,PAYLOAD,2024-05-25 11:11:50,15.0886551,0.0001172,53.2174,306.2301,100.6513,259.4612,0.00066698,0.0001035,0.0,0 STARLINK-4699,1 53716U 22107S   24146.46655498  .00010350  00000-0  66698-3 0  9995,2 53716  53.2174 306.2301 0001172 100.6513 259.4612 15.08865510 95347,6917.802,95.436,540.478,538.857,0.0
53716.0,STARLINK-4699,PAYLOAD,2024-05-25 14:22:37,15.08839927,0.0001628,53.2174,305.636,93.8524,266.2654,0.00025725,3.808e-05,0.0,0 STARLINK-4699,1 53716U 22107S   24146.59904835  .00003808  00000-0  25725-3 0  9997,2 53716  53.2174 305.6360 0001628  93.8524 266.2654 15.08839927 95813,6917.881,95.438,540.872,538.619,0.0
53716.0,STARLINK-4699,PAYLOAD,2024-05-25 17:33:24,15.08832329,0.0001078,53.2172,305.0414,80.8029,279.3085,-4.9601e-05,-1.077e-05,0.0,0 STARLINK-4699,1 53716U 22107S   24146.73153097 -.00001077  00000-0 -49601-4 0  9997,2 53716  53.2172 305.0414 0001078  80.8029 279.3085 15.08832329 95384,6917.904,95.438,540.515,539.023,0.0
53716.0,STARLINK-4699,PAYLOAD,2024-05-26 03:05:42,15.08839831,0.0001047,53.2175,303.2573,75.77,284.3409,8.3055e-05,1.034e-05,0.0,0 STARLINK-4699,1 53716U 22107S   24147.12896772  .00001034  00000-0  83055-4 0  9997,2 53716  53.2175 303.2573 0001047  75.7700 284.3409 15.08839831 95446,6917.881,95.438,540.47,539.022,0.0
53716.0,STARLINK-4699,PAYLOAD,2024-05-26 14:13:25,15.08838969,0.0001022,53.2175,301.1752,78.2365,281.8742,0.00015086,2.114e-05,0.0,0 STARLINK-4699,1 53716U 22107S   24147.59265058  .00002114  00000-0  15086-3 0  9993,2 53716  53.2175 301.1752 0001022  78.2365 281.8742 15.08838969 95960,6917.884,95.438,540.456,539.042,0.0
53716.0,STARLINK-4699,PAYLOAD,2024-05-26 20:34:57,15.08844974,0.0001167,53.2177,299.9868,76.9691,283.1432,0.00026631,3.954e-05,0.0,0 STARLINK-4699,1 53716U 22107S   24147.85760909  .00003954  00000-0  26631-3 0  9998,2 53716  53.2177 299.9868 0001167  76.9691 283.1432 15.08844974 96001,6917.865,95.437,540.538,538.923,0.0
53716.0,STARLINK-4699,PAYLOAD,2024-05-27 14:04:12,15.08839336,9.09e-05,53.2177,296.7164,73.6918,286.4174,0.00015713,2.214e-05,0.0,0 STARLINK-4699,1 53716U 22107S   24148.58625219  .00002214  00000-0  15713-3 0  9990,2 53716  53.2177 296.7164 0000909  73.6918 286.4174 15.08839336 96111,6917.882,95.438,540.376,539.119,0.0
